{"type": "FeatureCollection", "metadata": {"period": "24h", "date": "2026-10-05", "time": "22:00:00", "source_url": "https://api.hii.or.th/v2/4UQaYnf0Bx4fXPYyCdDRbqHyXH9Ixvd2nVUjaN1cLBY=/warning/flashflood-24h"}, "features": [{"type": "Feature", "id": "areas-220901", "properties": {"geocode": "220901", "tambon": "ต.นายายอาม", "amphoe": "อ.นายายอาม", "province": "จ.จันทบุรี", "region_id": "2", "region_name": "ภาคตะวันออก", "station": "อบต.นายายอาม", "latitude": 12.77083, "longitude": 101.85303, "sum_rainfall_mm": 137.39999999999998, "observed_at": "2026-10-05T10:00:00+07:00", "warning_group": "areas"}, "geometry": {"type": "Polygon", "coordinates": [[[101.87252, 12.83755], [101.87251, 12.82712], [101.8792, 12.78822], [101.88129, 12.78187], [101.88316, 12.7658], [101.88521, 12.76167], [101.88878, 12.75902], [101.89139, 12.7518], [101.89388, 12.75172], [101.89386, 12.74115], [101.89044, 12.73768], [101.88438, 12.74047], [101.87865, 12.73933], [101.87073, 12.72905], [101.86692, 12.7276], [101.86036, 12.73012], [101.85775, 12.72813], [101.85578, 12.72877], [101.85331, 12.72797], [101.84867, 12.7252], [101.82732, 12.727], [101.82482, 12.72854], [101.82279, 12.73217], [101.82202, 12.73821], [101.81922, 12.74028], [101.81834, 12.74805], [101.81606, 12.7475], [101.81616, 12.74331], [101.81301, 12.73926], [101.81079, 12.74027], [101.81018, 12.74421], [101.80718, 12.74297], [101.80572, 12.74577], [101.79902, 12.74737], [101.79966, 12.74956], [101.80417, 12.7516], [101.80679, 12.75589], [101.81075, 12.75559], [101.81113, 12.75124], [101.81247, 12.75021], [101.81524, 12.75087], [101.8193, 12.75413], [101.8169, 12.7586], [101.82018, 12.76511], [101.81746, 12.76718], [101.81875, 12.77428], [101.81824, 12.7774], [101.82114, 12.78005], [101.81991, 12.78313], [101.82066, 12.78483], [101.81949, 12.78589], [101.8201, 12.79062], [101.82173, 12.79303], [101.81776, 12.80127], [101.81858, 12.80163], [101.81937, 12.80002], [101.82172, 12.80109], [101.82154, 12.80445], [101.82338, 12.80666], [101.82479, 12.80648], [101.82487, 12.80875], [101.82764, 12.81064], [101.82661, 12.81233], [101.82776, 12.81303], [101.82752, 12.81633], [101.82873, 12.81689], [101.82743, 12.81761], [101.82909, 12.82022], [101.82812, 12.82182], [101.83049, 12.82424], [101.8281, 12.82908], [101.82961, 12.83009], [101.82851, 12.83151], [101.82846, 12.8358], [101.83191, 12.83583], [101.83432, 12.83383], [101.84521, 12.83863], [101.85415, 12.83805], [101.85713, 12.84001], [101.85882, 12.83661], [101.86499, 12.83439], [101.86898, 12.83475], [101.87252, 12.83755]]]}}, {"type": "Feature", "id": "areas-500203", "properties": {"geocode": "500203", "tambon": "ต.บ้านหลวง", "amphoe": "อ.จอมทอง", "province": "จ.เชียงใหม่", "region_id": "4", "region_name": "ภาคเหนือ", "station": "หน่วยจัดการต้นน้ำและพัฒนาชุมชนในพื้นที่ป่าอนุรักษ์แม่กลาง", "latitude": 18.533205, "longitude": 98.52239, "sum_rainfall_mm": 139.60000000000002, "observed_at": "2026-10-05T10:00:00+07:00", "warning_group": "areas"}, "geometry": {"type": "Polygon", "coordinates": [[[98.63557, 18.58267], [98.64044, 18.58225], [98.64482, 18.58044], [98.65029, 18.57465], [98.65487, 18.57357], [98.65844, 18.571], [98.65965, 18.5668], [98.66691, 18.56663], [98.66669, 18.56447], [98.66871, 18.56317], [98.66777, 18.55863], [98.67159, 18.55885], [98.67251, 18.55802], [98.67483, 18.54963], [98.68993, 18.53488], [98.6872, 18.52639], [98.68353, 18.52612], [98.68296, 18.52479], [98.69115, 18.51746], [98.69293, 18.51112], [98.71008, 18.50646], [98.72628, 18.4989], [98.71572, 18.49166], [98.70772, 18.48092], [98.70525, 18.48091], [98.69952, 18.47836], [98.69348, 18.47387], [98.68202, 18.47454], [98.66654, 18.47145], [98.65941, 18.46795], [98.65821, 18.4656], [98.65879, 18.46439], [98.65629, 18.45998], [98.66005, 18.45596], [98.65688, 18.4503], [98.65749, 18.44714], [98.65671, 18.44557], [98.65998, 18.44471], [98.65926, 18.4403], [98.6626, 18.43967], [98.66457, 18.43699], [98.66686, 18.43591], [98.66821, 18.43325], [98.6698, 18.43303], [98.66888, 18.4313], [98.67039, 18.42855], [98.66915, 18.42641], [98.67057, 18.42422], [98.67881, 18.42127], [98.68366, 18.42169], [98.69206, 18.41967], [98.69337, 18.41901], [98.69296, 18.4152], [98.69673, 18.41123], [98.69178, 18.40903], [98.68449, 18.40764], [98.68138, 18.41536], [98.67712, 18.41571], [98.6727, 18.41785], [98.66953, 18.4176], [98.66939, 18.41895], [98.66547, 18.41937], [98.66491, 18.42058], [98.65095, 18.42561], [98.6451, 18.4267], [98.63444, 18.42628], [98.62705, 18.42801], [98.61891, 18.42543], [98.61296, 18.42641], [98.6007, 18.42002], [98.5676, 18.42055], [98.53945, 18.41132], [98.53592, 18.4121], [98.52557, 18.41048], [98.52198, 18.41216], [98.51852, 18.41235], [98.51459, 18.40747], [98.50967, 18.40672], [98.50711, 18.40288], [98.50064, 18.40506], [98.49985, 18.40813], [98.50299, 18.41039], [98.50259, 18.41673], [98.49836, 18.41705], [98.49691, 18.41921], [98.49697, 18.41756], [98.49427, 18.41897], [98.49272, 18.41761], [98.49244, 18.4197], [98.48718, 18.42321], [98.4833, 18.43029], [98.48171, 18.44096], [98.48332, 18.44457], [98.47455, 18.44933], [98.47555, 18.46404], [98.47861, 18.46826], [98.48133, 18.46899], [98.48997, 18.47707], [98.4927, 18.47698], [98.49531, 18.47834], [98.49744, 18.48058], [98.49747, 18.48448], [98.49882, 18.48671], [98.50091, 18.48747], [98.5064, 18.48653], [98.51013, 18.49165], [98.50864, 18.49671], [98.50344, 18.50099], [98.50463, 18.50333], [98.50736, 18.50479], [98.50744, 18.50603], [98.50324, 18.50593], [98.50256, 18.50682], [98.5061, 18.51096], [98.50745, 18.51657], [98.50728, 18.51902], [98.50506, 18.52233], [98.50539, 18.52489], [98.50402, 18.52593], [98.49772, 18.52512], [98.49678, 18.52954], [98.49498, 18.53115], [98.49315, 18.53699], [98.49116, 18.53799], [98.48651, 18.54503], [98.48451, 18.54605], [98.48262, 18.55007], [98.48164, 18.55988], [98.48307, 18.57117], [98.48122, 18.57806], [98.47911, 18.58138], [98.47936, 18.58454], [98.48703, 18.58757], [98.48757, 18.59223], [98.49825, 18.59076], [98.50811, 18.59483], [98.51416, 18.59324], [98.52061, 18.59322], [98.53091, 18.58862], [98.53633, 18.58931], [98.54489, 18.58455], [98.55123, 18.58496], [98.55743, 18.58317], [98.56018, 18.58411], [98.56381, 18.58237], [98.57238, 18.58098], [98.5951, 18.58228], [98.60126, 18.58444], [98.60923, 18.59402], [98.61568, 18.59595], [98.62321, 18.60037], [98.62604, 18.59198], [98.63241, 18.58786], [98.63557, 18.58267]]]}}, {"type": "Feature", "id": "areas-550302", "properties": {"geocode": "550302", "tambon": "ต.ป่าคาหลวง", "amphoe": "อ.บ้านหลวง", "province": "จ.น่าน", "region_id": "4", "region_name": "ภาคเหนือ", "station": "สนามกีฬา อบต.ป่าคาหลวง", "latitude": 18.85289, "longitude": 100.43501, "sum_rainfall_mm": 102.0, "observed_at": "2026-10-05T10:00:00+07:00", "warning_group": "areas"}, "geometry": {"type": "Polygon", "coordinates": [[[100.46291, 18.85992], [100.45528, 18.84802], [100.44923, 18.84351], [100.44, 18.84136], [100.4385, 18.83963], [100.43295, 18.8409], [100.41276, 18.84067], [100.40824, 18.83927], [100.40693, 18.83676], [100.40118, 18.83566], [100.39594, 18.83775], [100.39123, 18.83759], [100.38897, 18.83584], [100.38337, 18.83644], [100.37747, 18.83323], [100.36995, 18.83234], [100.36663, 18.83358], [100.36315, 18.83308], [100.35987, 18.83019], [100.35697, 18.8308], [100.35365, 18.82865], [100.34799, 18.82927], [100.34716, 18.83093], [100.34818, 18.8341], [100.36406, 18.84926], [100.36607, 18.85413], [100.36341, 18.86379], [100.36613, 18.86774], [100.36645, 18.87136], [100.38584, 18.8889], [100.38634, 18.89135], [100.38946, 18.88734], [100.38872, 18.88293], [100.39199, 18.88149], [100.39506, 18.88266], [100.39786, 18.87908], [100.40102, 18.88262], [100.40115, 18.87935], [100.39995, 18.87797], [100.40157, 18.87693], [100.40442, 18.87957], [100.40961, 18.87841], [100.41014, 18.87762], [100.40822, 18.8762], [100.40941, 18.87385], [100.41138, 18.87333], [100.41259, 18.87101], [100.41538, 18.86915], [100.41956, 18.87074], [100.41968, 18.86795], [100.42457, 18.86585], [100.427, 18.86695], [100.43077, 18.86467], [100.4341, 18.86445], [100.43394, 18.86296], [100.43639, 18.86228], [100.43873, 18.86427], [100.43739, 18.86642], [100.43788, 18.86762], [100.44117, 18.86689], [100.44687, 18.86771], [100.44958, 18.86667], [100.45584, 18.85951], [100.46291, 18.85992]]]}}, {"type": "Feature", "id": "areas-800706", "properties": {"geocode": "800706", "tambon": "ต.บ้านตูล", "amphoe": "อ.ชะอวด", "province": "จ.นครศรีธรรมราช", "region_id": "6", "region_name": "ภาคใต้", "station": "บ้านตูล", "latitude": 8.041068, "longitude": 99.981933, "sum_rainfall_mm": 120.0, "observed_at": "2026-10-05T10:00:00+07:00", "warning_group": "areas"}, "geometry": {"type": "Polygon", "coordinates": [[[100.01759, 8.10512], [100.0203, 8.09735], [100.02226, 8.09564], [100.02582, 8.09507], [100.03022, 8.09656], [100.03472, 8.09404], [100.03788, 8.09508], [100.04156, 8.09343], [100.04351, 8.09029], [100.04326, 8.08866], [100.04585, 8.08725], [100.04465, 8.08574], [100.0398, 8.08465], [100.04025, 8.08268], [100.04216, 8.08269], [100.04373, 8.07976], [100.04247, 8.07086], [100.04387, 8.0663], [100.0419, 8.06455], [100.0436, 8.05966], [100.04632, 8.05681], [100.05359, 8.05341], [100.06214, 8.04526], [100.04993, 8.04209], [100.04435, 8.03792], [100.03337, 8.03334], [100.03036, 8.03305], [100.02289, 8.0274], [100.0162, 8.02513], [100.00471, 8.03118], [99.98878, 8.03553], [99.97672, 8.03676], [99.97276, 8.03593], [99.96441, 8.02468], [99.9607, 8.00621], [99.94381, 8.00287], [99.94523, 8.02724], [99.94346, 8.02916], [99.93752, 8.0291], [99.9371, 8.03736], [99.9409, 8.03895], [99.95291, 8.04993], [99.95835, 8.068], [99.95098, 8.07286], [99.96382, 8.08811], [99.97155, 8.09222], [99.97748, 8.09849], [99.98955, 8.10292], [99.99077, 8.10217], [99.99403, 8.10293], [99.99972, 8.10784], [100.0018, 8.10679], [100.00467, 8.10851], [100.01024, 8.10886], [100.01106, 8.10759], [100.01387, 8.10747], [100.01759, 8.10512]]]}}, {"type": "Feature", "id": "areas-961001", "properties": {"geocode": "961001", "tambon": "ต.สุไหงโก-ลก", "amphoe": "อ.สุไหงโก-ลก", "province": "จ.นราธิวาส", "region_id": "6", "region_name": "ภาคใต้", "station": "ทต.สุไหงโก-ลก", "latitude": 6.00509, "longitude": 101.95814, "sum_rainfall_mm": 253.40000000000003, "observed_at": "2026-10-05T10:00:00+07:00", "warning_group": "areas"}, "geometry": {"type": "Polygon", "coordinates": [[[101.98134, 6.0292], [101.97772, 6.03026], [101.9755, 6.02421], [101.97036, 6.01953], [101.97123, 6.01422], [101.97058, 6.01097], [101.97229, 6.00967], [101.97086, 6.0059], [101.96777, 6.00448], [101.96674, 6.00214], [101.96418, 6.00079], [101.96265, 5.99678], [101.95887, 5.99759], [101.95724, 5.99382], [101.95323, 5.9955], [101.95464, 5.99275], [101.95225, 5.99152], [101.95121, 5.98784], [101.94977, 5.98808], [101.94903, 5.99081], [101.94742, 5.99073], [101.94806, 5.98513], [101.94707, 5.98378], [101.94599, 5.98957], [101.93728, 5.99352], [101.93541, 6.00583], [101.92355, 6.01015], [101.92097, 6.01543], [101.91667, 6.02016], [101.9175, 6.02218], [101.928, 6.0291], [101.93682, 6.02276], [101.95889, 6.02639], [101.95739, 6.03063], [101.9591, 6.03225], [101.97219, 6.03461], [101.97569, 6.03492], [101.98134, 6.0292]]]}}, {"type": "Feature", "id": "area_nearby-220901", "properties": {"geocode": "220901", "tambon": "ต.นายายอาม", "amphoe": "อ.นายายอาม", "province": "จ.จันทบุรี", "region_id": "2", "region_name": "ภาคตะวันออก", "station": "อบต.นายายอาม", "latitude": 12.77083, "longitude": 101.85303, "sum_rainfall_mm": 137.39999999999998, "observed_at": "2026-10-05T10:00:00+07:00", "warning_group": "area_nearby"}, "geometry": {"type": "Polygon", "coordinates": [[[101.87252, 12.83755], [101.87251, 12.82712], [101.8792, 12.78822], [101.88129, 12.78187], [101.88316, 12.7658], [101.88521, 12.76167], [101.88878, 12.75902], [101.89139, 12.7518], [101.89388, 12.75172], [101.89386, 12.74115], [101.89044, 12.73768], [101.88438, 12.74047], [101.87865, 12.73933], [101.87073, 12.72905], [101.86692, 12.7276], [101.86036, 12.73012], [101.85775, 12.72813], [101.85578, 12.72877], [101.85331, 12.72797], [101.84867, 12.7252], [101.82732, 12.727], [101.82482, 12.72854], [101.82279, 12.73217], [101.82202, 12.73821], [101.81922, 12.74028], [101.81834, 12.74805], [101.81606, 12.7475], [101.81616, 12.74331], [101.81301, 12.73926], [101.81079, 12.74027], [101.81018, 12.74421], [101.80718, 12.74297], [101.80572, 12.74577], [101.79902, 12.74737], [101.79966, 12.74956], [101.80417, 12.7516], [101.80679, 12.75589], [101.81075, 12.75559], [101.81113, 12.75124], [101.81247, 12.75021], [101.81524, 12.75087], [101.8193, 12.75413], [101.8169, 12.7586], [101.82018, 12.76511], [101.81746, 12.76718], [101.81875, 12.77428], [101.81824, 12.7774], [101.82114, 12.78005], [101.81991, 12.78313], [101.82066, 12.78483], [101.81949, 12.78589], [101.8201, 12.79062], [101.82173, 12.79303], [101.81776, 12.80127], [101.81858, 12.80163], [101.81937, 12.80002], [101.82172, 12.80109], [101.82154, 12.80445], [101.82338, 12.80666], [101.82479, 12.80648], [101.82487, 12.80875], [101.82764, 12.81064], [101.82661, 12.81233], [101.82776, 12.81303], [101.82752, 12.81633], [101.82873, 12.81689], [101.82743, 12.81761], [101.82909, 12.82022], [101.82812, 12.82182], [101.83049, 12.82424], [101.8281, 12.82908], [101.82961, 12.83009], [101.82851, 12.83151], [101.82846, 12.8358], [101.83191, 12.83583], [101.83432, 12.83383], [101.84521, 12.83863], [101.85415, 12.83805], [101.85713, 12.84001], [101.85882, 12.83661], [101.86499, 12.83439], [101.86898, 12.83475], [101.87252, 12.83755]]]}}, {"type": "Feature", "id": "area_nearby-500203", "properties": {"geocode": "500203", "tambon": "ต.บ้านหลวง", "amphoe": "อ.จอมทอง", "province": "จ.เชียงใหม่", "region_id": "4", "region_name": "ภาคเหนือ", "station": "หน่วยจัดการต้นน้ำและพัฒนาชุมชนในพื้นที่ป่าอนุรักษ์แม่กลาง", "latitude": 18.533205, "longitude": 98.52239, "sum_rainfall_mm": 139.60000000000002, "observed_at": "2026-10-05T10:00:00+07:00", "warning_group": "area_nearby"}, "geometry": {"type": "Polygon", "coordinates": [[[98.63557, 18.58267], [98.64044, 18.58225], [98.64482, 18.58044], [98.65029, 18.57465], [98.65487, 18.57357], [98.65844, 18.571], [98.65965, 18.5668], [98.66691, 18.56663], [98.66669, 18.56447], [98.66871, 18.56317], [98.66777, 18.55863], [98.67159, 18.55885], [98.67251, 18.55802], [98.67483, 18.54963], [98.68993, 18.53488], [98.6872, 18.52639], [98.68353, 18.52612], [98.68296, 18.52479], [98.69115, 18.51746], [98.69293, 18.51112], [98.71008, 18.50646], [98.72628, 18.4989], [98.71572, 18.49166], [98.70772, 18.48092], [98.70525, 18.48091], [98.69952, 18.47836], [98.69348, 18.47387], [98.68202, 18.47454], [98.66654, 18.47145], [98.65941, 18.46795], [98.65821, 18.4656], [98.65879, 18.46439], [98.65629, 18.45998], [98.66005, 18.45596], [98.65688, 18.4503], [98.65749, 18.44714], [98.65671, 18.44557], [98.65998, 18.44471], [98.65926, 18.4403], [98.6626, 18.43967], [98.66457, 18.43699], [98.66686, 18.43591], [98.66821, 18.43325], [98.6698, 18.43303], [98.66888, 18.4313], [98.67039, 18.42855], [98.66915, 18.42641], [98.67057, 18.42422], [98.67881, 18.42127], [98.68366, 18.42169], [98.69206, 18.41967], [98.69337, 18.41901], [98.69296, 18.4152], [98.69673, 18.41123], [98.69178, 18.40903], [98.68449, 18.40764], [98.68138, 18.41536], [98.67712, 18.41571], [98.6727, 18.41785], [98.66953, 18.4176], [98.66939, 18.41895], [98.66547, 18.41937], [98.66491, 18.42058], [98.65095, 18.42561], [98.6451, 18.4267], [98.63444, 18.42628], [98.62705, 18.42801], [98.61891, 18.42543], [98.61296, 18.42641], [98.6007, 18.42002], [98.5676, 18.42055], [98.53945, 18.41132], [98.53592, 18.4121], [98.52557, 18.41048], [98.52198, 18.41216], [98.51852, 18.41235], [98.51459, 18.40747], [98.50967, 18.40672], [98.50711, 18.40288], [98.50064, 18.40506], [98.49985, 18.40813], [98.50299, 18.41039], [98.50259, 18.41673], [98.49836, 18.41705], [98.49691, 18.41921], [98.49697, 18.41756], [98.49427, 18.41897], [98.49272, 18.41761], [98.49244, 18.4197], [98.48718, 18.42321], [98.4833, 18.43029], [98.48171, 18.44096], [98.48332, 18.44457], [98.47455, 18.44933], [98.47555, 18.46404], [98.47861, 18.46826], [98.48133, 18.46899], [98.48997, 18.47707], [98.4927, 18.47698], [98.49531, 18.47834], [98.49744, 18.48058], [98.49747, 18.48448], [98.49882, 18.48671], [98.50091, 18.48747], [98.5064, 18.48653], [98.51013, 18.49165], [98.50864, 18.49671], [98.50344, 18.50099], [98.50463, 18.50333], [98.50736, 18.50479], [98.50744, 18.50603], [98.50324, 18.50593], [98.50256, 18.50682], [98.5061, 18.51096], [98.50745, 18.51657], [98.50728, 18.51902], [98.50506, 18.52233], [98.50539, 18.52489], [98.50402, 18.52593], [98.49772, 18.52512], [98.49678, 18.52954], [98.49498, 18.53115], [98.49315, 18.53699], [98.49116, 18.53799], [98.48651, 18.54503], [98.48451, 18.54605], [98.48262, 18.55007], [98.48164, 18.55988], [98.48307, 18.57117], [98.48122, 18.57806], [98.47911, 18.58138], [98.47936, 18.58454], [98.48703, 18.58757], [98.48757, 18.59223], [98.49825, 18.59076], [98.50811, 18.59483], [98.51416, 18.59324], [98.52061, 18.59322], [98.53091, 18.58862], [98.53633, 18.58931], [98.54489, 18.58455], [98.55123, 18.58496], [98.55743, 18.58317], [98.56018, 18.58411], [98.56381, 18.58237], [98.57238, 18.58098], [98.5951, 18.58228], [98.60126, 18.58444], [98.60923, 18.59402], [98.61568, 18.59595], [98.62321, 18.60037], [98.62604, 18.59198], [98.63241, 18.58786], [98.63557, 18.58267]]]}}, {"type": "Feature", "id": "area_nearby-550302", "properties": {"geocode": "550302", "tambon": "ต.ป่าคาหลวง", "amphoe": "อ.บ้านหลวง", "province": "จ.น่าน", "region_id": "4", "region_name": "ภาคเหนือ", "station": "สนามกีฬา อบต.ป่าคาหลวง", "latitude": 18.85289, "longitude": 100.43501, "sum_rainfall_mm": 102.0, "observed_at": "2026-10-05T10:00:00+07:00", "warning_group": "area_nearby"}, "geometry": {"type": "Polygon", "coordinates": [[[100.46291, 18.85992], [100.45528, 18.84802], [100.44923, 18.84351], [100.44, 18.84136], [100.4385, 18.83963], [100.43295, 18.8409], [100.41276, 18.84067], [100.40824, 18.83927], [100.40693, 18.83676], [100.40118, 18.83566], [100.39594, 18.83775], [100.39123, 18.83759], [100.38897, 18.83584], [100.38337, 18.83644], [100.37747, 18.83323], [100.36995, 18.83234], [100.36663, 18.83358], [100.36315, 18.83308], [100.35987, 18.83019], [100.35697, 18.8308], [100.35365, 18.82865], [100.34799, 18.82927], [100.34716, 18.83093], [100.34818, 18.8341], [100.36406, 18.84926], [100.36607, 18.85413], [100.36341, 18.86379], [100.36613, 18.86774], [100.36645, 18.87136], [100.38584, 18.8889], [100.38634, 18.89135], [100.38946, 18.88734], [100.38872, 18.88293], [100.39199, 18.88149], [100.39506, 18.88266], [100.39786, 18.87908], [100.40102, 18.88262], [100.40115, 18.87935], [100.39995, 18.87797], [100.40157, 18.87693], [100.40442, 18.87957], [100.40961, 18.87841], [100.41014, 18.87762], [100.40822, 18.8762], [100.40941, 18.87385], [100.41138, 18.87333], [100.41259, 18.87101], [100.41538, 18.86915], [100.41956, 18.87074], [100.41968, 18.86795], [100.42457, 18.86585], [100.427, 18.86695], [100.43077, 18.86467], [100.4341, 18.86445], [100.43394, 18.86296], [100.43639, 18.86228], [100.43873, 18.86427], [100.43739, 18.86642], [100.43788, 18.86762], [100.44117, 18.86689], [100.44687, 18.86771], [100.44958, 18.86667], [100.45584, 18.85951], [100.46291, 18.85992]]]}}, {"type": "Feature", "id": "area_nearby-800706", "properties": {"geocode": "800706", "tambon": "ต.บ้านตูล", "amphoe": "อ.ชะอวด", "province": "จ.นครศรีธรรมราช", "region_id": "6", "region_name": "ภาคใต้", "station": "บ้านตูล", "latitude": 8.041068, "longitude": 99.981933, "sum_rainfall_mm": 120.0, "observed_at": "2026-10-05T10:00:00+07:00", "warning_group": "area_nearby"}, "geometry": {"type": "Polygon", "coordinates": [[[100.01759, 8.10512], [100.0203, 8.09735], [100.02226, 8.09564], [100.02582, 8.09507], [100.03022, 8.09656], [100.03472, 8.09404], [100.03788, 8.09508], [100.04156, 8.09343], [100.04351, 8.09029], [100.04326, 8.08866], [100.04585, 8.08725], [100.04465, 8.08574], [100.0398, 8.08465], [100.04025, 8.08268], [100.04216, 8.08269], [100.04373, 8.07976], [100.04247, 8.07086], [100.04387, 8.0663], [100.0419, 8.06455], [100.0436, 8.05966], [100.04632, 8.05681], [100.05359, 8.05341], [100.06214, 8.04526], [100.04993, 8.04209], [100.04435, 8.03792], [100.03337, 8.03334], [100.03036, 8.03305], [100.02289, 8.0274], [100.0162, 8.02513], [100.00471, 8.03118], [99.98878, 8.03553], [99.97672, 8.03676], [99.97276, 8.03593], [99.96441, 8.02468], [99.9607, 8.00621], [99.94381, 8.00287], [99.94523, 8.02724], [99.94346, 8.02916], [99.93752, 8.0291], [99.9371, 8.03736], [99.9409, 8.03895], [99.95291, 8.04993], [99.95835, 8.068], [99.95098, 8.07286], [99.96382, 8.08811], [99.97155, 8.09222], [99.97748, 8.09849], [99.98955, 8.10292], [99.99077, 8.10217], [99.99403, 8.10293], [99.99972, 8.10784], [100.0018, 8.10679], [100.00467, 8.10851], [100.01024, 8.10886], [100.01106, 8.10759], [100.01387, 8.10747], [100.01759, 8.10512]]]}}, {"type": "Feature", "id": "area_nearby-961001", "properties": {"geocode": "961001", "tambon": "ต.สุไหงโก-ลก", "amphoe": "อ.สุไหงโก-ลก", "province": "จ.นราธิวาส", "region_id": "6", "region_name": "ภาคใต้", "station": "ทต.สุไหงโก-ลก", "latitude": 6.00509, "longitude": 101.95814, "sum_rainfall_mm": 253.40000000000003, "observed_at": "2026-10-05T10:00:00+07:00", "warning_group": "area_nearby"}, "geometry": {"type": "Polygon", "coordinates": [[[101.98134, 6.0292], [101.97772, 6.03026], [101.9755, 6.02421], [101.97036, 6.01953], [101.97123, 6.01422], [101.97058, 6.01097], [101.97229, 6.00967], [101.97086, 6.0059], [101.96777, 6.00448], [101.96674, 6.00214], [101.96418, 6.00079], [101.96265, 5.99678], [101.95887, 5.99759], [101.95724, 5.99382], [101.95323, 5.9955], [101.95464, 5.99275], [101.95225, 5.99152], [101.95121, 5.98784], [101.94977, 5.98808], [101.94903, 5.99081], [101.94742, 5.99073], [101.94806, 5.98513], [101.94707, 5.98378], [101.94599, 5.98957], [101.93728, 5.99352], [101.93541, 6.00583], [101.92355, 6.01015], [101.92097, 6.01543], [101.91667, 6.02016], [101.9175, 6.02218], [101.928, 6.0291], [101.93682, 6.02276], [101.95889, 6.02639], [101.95739, 6.03063], [101.9591, 6.03225], [101.97219, 6.03461], [101.97569, 6.03492], [101.98134, 6.0292]]]}}]}
