{"type":"FeatureCollection","features":[{"geometry":{"coordinates":[[[[103.20846065092263,17.202622520320823],[103.20846065092263,17.20239794149977],[103.2086852297436,17.202397941499765],[103.2086852297436,17.201724205036705],[103.20846065092263,17.20172420503671],[103.20846065092263,17.20127504739461],[103.20823607210167,17.20127504739461],[103.20823607210167,17.201050468573555],[103.20778691445975,17.20105046857355],[103.20778691445975,17.20172420503672],[103.20801149328071,17.20172420503671],[103.20801149328071,17.202397941499775],[103.20823607210167,17.202397941499772],[103.20823607210167,17.202622520320823],[103.20846065092263,17.202622520320823]]]],"type":"MultiPolygon"},"id":"6ab66fa78e5c8d8f9686ed02","properties":{"_area":10731.856169803139,"_createdAt":"2026-09-25T12:57:11.826Z","_createdBy":"66b07c8034c2963abcdb9bb8","_id":"6ab66fa78e5c8d8f9686ed02","_updatedAt":"2026-09-25T12:57:11.826Z","_updatedBy":"66b07c8034c2963abcdb9bb8","ap_en":"AMPHOE KU KAEO","ap_idn":4124,"ap_tn":"อ.กู่แก้ว","building":0,"cassava_area":0,"f_area":10731.856169803139,"file_name":"cg2_20260919_1806, S1C_20260921_0558, S1C_20260923_1812, S1D_20260920_0607, S1D_20260922_0551, S1D_20260922_1819, rd2_20260924_1815","h3_address":"8941692980fffff","h3_area":121469.88744609701,"hospital":0,"length_road":0,"maize_area":0,"mongo_id":"6ab66bfc8e5c8d8f9686e8bc","population":0,"pv_en":"Changwat Udon Thani","pv_idn":41,"pv_tn":"จ.อุดรธานี","re_royin":"Northeast","re_royin_2":"Northeast","rice_area":0,"school":0,"sugarcane_area":0,"tb_en":"NON THONG IN","tb_idn":412402,"tb_tn":"ต.โนนทองอินทร์"},"type":"Feature"},{"geometry":{"coordinates":[[[[102.99690740151243,17.12132498710795],[102.99690740151242,17.121100408286917],[102.99668282269148,17.12110040828692],[102.99668282269147,17.121324987107965],[102.99645824387052,17.12132498710796],[102.99645824387052,17.121549565929012],[102.99668282269147,17.121549565929005],[102.99668282268617,17.121599779564573],[102.99735655914785,17.121401371370535],[102.9973565591547,17.121324987107965],[102.99690740151243,17.12132498710795]]]],"type":"MultiPolygon"},"id":"6ab66fa78e5c8d8f9686ed03","properties":{"_area":2590.738321991691,"_createdAt":"2026-09-25T12:57:11.827Z","_createdBy":"66b07c8034c2963abcdb9bb8","_id":"6ab66fa78e5c8d8f9686ed03","_updatedAt":"2026-09-25T12:57:11.827Z","_updatedBy":"66b07c8034c2963abcdb9bb8","ap_en":"AMPHOE KUMPHAWAPI","ap_idn":4104,"ap_tn":"อ.กุมภวาปี","building":0,"cassava_area":0,"f_area":2590.738321991691,"file_name":"cg2_20260919_1806, S1C_20260921_0558, S1C_20260923_1812, S1D_20260920_0607, S1D_20260922_0551, S1D_20260922_1819, rd2_20260924_1815","h3_address":"8941692c867ffff","h3_area":121630.92010998852,"hospital":0,"length_road":0,"maize_area":0,"mongo_id":"6ab66bf9c7dc526b7165a4ea","population":0,"pv_en":"Changwat Udon Thani","pv_idn":41,"pv_tn":"จ.อุดรธานี","re_royin":"Northeast","re_royin_2":"Northeast","rice_area":0,"school":0,"sugarcane_area":0,"tb_en":"KUMPHAWAPI","tb_idn":410415,"tb_tn":"ต.กุมภวาปี"},"type":"Feature"},{"geometry":{"coordinates":[[[[102.99668282268617,17.121599779564573],[102.99668282269148,17.12177414475005],[102.99713198033339,17.121774144750056],[102.99713198033339,17.121998723571025],[102.9980302956176,17.121998723571025],[102.99803029561758,17.12222330239208],[102.99825487443856,17.122223302392054],[102.99825487443856,17.12244788121313],[102.99847945325989,17.12244788121313],[102.99847945325988,17.122672460034163],[102.99870403208085,17.122672460034167],[102.99870403208084,17.122897038855225],[102.99915318972278,17.12289703885523],[102.99915318972276,17.12222330239208],[102.99892861090179,17.122223302392072],[102.9989286109018,17.121998723571025],[102.99870403208082,17.121998723571036],[102.99870403208082,17.121774144750056],[102.99825487443856,17.121774144750056],[102.99825487443856,17.121549565929012],[102.99735655915471,17.121549565929],[102.99735655914785,17.121401371370535],[102.99668282268617,17.121599779564573]]]],"type":"MultiPolygon"},"id":"6ab66fa78e5c8d8f9686ed04","properties":{"_area":16486.981141916625,"_createdAt":"2026-09-25T12:57:11.827Z","_createdBy":"66b07c8034c2963abcdb9bb8","_id":"6ab66fa78e5c8d8f9686ed04","_updatedAt":"2026-09-25T12:57:11.827Z","_updatedBy":"66b07c8034c2963abcdb9bb8","ap_en":"AMPHOE KUMPHAWAPI","ap_idn":4104,"ap_tn":"อ.กุมภวาปี","building":0,"cassava_area":0,"f_area":16486.981141916625,"file_name":"cg2_20260919_1806, S1C_20260921_0558, S1C_20260923_1812, S1D_20260920_0607, S1D_20260922_0551, S1D_20260922_1819, rd2_20260924_1815","h3_address":"8941692c86fffff","h3_area":121627.93036182906,"hospital":0,"length_road":0,"maize_area":0,"mongo_id":"6ab66bf9c7dc526b7165a4eb","population":0,"pv_en":"Changwat Udon Thani","pv_idn":41,"pv_tn":"จ.อุดรธานี","re_royin":"Northeast","re_royin_2":"Northeast","rice_area":0,"school":0,"sugarcane_area":0,"tb_en":"KUMPHAWAPI","tb_idn":410415,"tb_tn":"ต.กุมภวาปี"},"type":"Feature"},{"geometry":{"coordinates":[[[[103.00376605677943,17.12806235182753],[103.00386934496439,17.12806235173884],[103.0038693448986,17.127654256974324],[103.00376605677943,17.12806235182753]]]],"type":"MultiPolygon"},"id":"6ab66fa78e5c8d8f9686ed05","properties":{"_area":249.1220973158238,"_createdAt":"2026-09-25T12:57:11.827Z","_createdBy":"66b07c8034c2963abcdb9bb8","_id":"6ab66fa78e5c8d8f9686ed05","_updatedAt":"2026-09-25T12:57:11.827Z","_updatedBy":"66b07c8034c2963abcdb9bb8","ap_en":"AMPHOE KUMPHAWAPI","ap_idn":4104,"ap_tn":"อ.กุมภวาปี","building":0,"cassava_area":0,"f_area":249.1220973158238,"file_name":"cg2_20260919_1806, S1C_20260921_0558, S1C_20260923_1812, S1D_20260920_0607, S1D_20260922_0551, S1D_20260922_1819, rd2_20260924_1815","h3_address":"8941692caa3ffff","h3_area":121620.65580062743,"hospital":0,"length_road":0,"maize_area":0,"mongo_id":"6ab66bf9c7dc526b7165a4ed","population":0,"pv_en":"Changwat Udon Thani","pv_idn":41,"pv_tn":"จ.อุดรธานี","re_royin":"Northeast","re_royin_2":"Northeast","rice_area":0,"school":0,"sugarcane_area":0,"tb_en":"KUMPHAWAPI","tb_idn":410415,"tb_tn":"ต.กุมภวาปี"},"type":"Feature"},{"geometry":{"coordinates":[[[[103.00364476614342,17.127388615275784],[103.00364476614341,17.12649029999168],[103.00386934496437,17.12649029999169],[103.00386934489586,17.12612960902835],[103.00352004710277,17.125816563615107],[103.00342018732246,17.125816563528534],[103.00342018732248,17.126041142349585],[103.0031956085015,17.126041142349592],[103.0031956085015,17.126265721170626],[103.00297102968018,17.126265721170626],[103.0029710296802,17.12671487881273],[103.0031956085015,17.126714878812734],[103.0031956085015,17.127613194096856],[103.00342018732246,17.127613194096867],[103.00342018732246,17.128062351738865],[103.00376605677943,17.12806235182753],[103.0038693448986,17.127654256974324],[103.00386934496439,17.127388615275795],[103.00364476614342,17.127388615275784]]]],"type":"MultiPolygon"},"id":"6ab66fa78e5c8d8f9686ed06","properties":{"_area":14008.880237382971,"_createdAt":"2026-09-25T12:57:11.827Z","_createdBy":"66b07c8034c2963abcdb9bb8","_id":"6ab66fa78e5c8d8f9686ed06","_updatedAt":"2026-09-25T12:57:11.827Z","_updatedBy":"66b07c8034c2963abcdb9bb8","ap_en":"AMPHOE KUMPHAWAPI","ap_idn":4104,"ap_tn":"อ.กุมภวาปี","building":0,"cassava_area":0,"f_area":14008.880237382971,"file_name":"cg2_20260919_1806, S1C_20260921_0558, S1C_20260923_1812, S1D_20260920_0607, S1D_20260922_0551, S1D_20260922_1819, rd2_20260924_1815","h3_address":"8941692caa7ffff","h3_area":121622.79786714682,"hospital":0,"length_road":0,"maize_area":0,"mongo_id":"6ab66bf9c7dc526b7165a4ee","population":0,"pv_en":"Changwat Udon Thani","pv_idn":41,"pv_tn":"จ.อุดรธานี","re_royin":"Northeast","re_royin_2":"Northeast","rice_area":0,"school":0,"sugarcane_area":0,"tb_en":"KUMPHAWAPI","tb_idn":410415,"tb_tn":"ต.กุมภวาปี"},"type":"Feature"},{"geometry":{"coordinates":[[[[103.00386934489586,17.12612960902835],[103.00386934496439,17.12581656352852],[103.00352004710277,17.125816563615107],[103.00386934489586,17.12612960902835]]]],"type":"MultiPolygon"},"id":"6ab66fa78e5c8d8f9686ed07","properties":{"_area":646.26270023182,"_createdAt":"2026-09-25T12:57:11.827Z","_createdBy":"66b07c8034c2963abcdb9bb8","_id":"6ab66fa78e5c8d8f9686ed07","_updatedAt":"2026-09-25T12:57:11.827Z","_updatedBy":"66b07c8034c2963abcdb9bb8","ap_en":"AMPHOE KUMPHAWAPI","ap_idn":4104,"ap_tn":"อ.กุมภวาปี","building":0,"cassava_area":0,"f_area":646.26270023182,"file_name":"cg2_20260919_1806, S1C_20260921_0558, S1C_20260923_1812, S1D_20260920_0607, S1D_20260922_0551, S1D_20260922_1819, rd2_20260924_1815","h3_address":"8941692cab7ffff","h3_area":121623.64729332094,"hospital":0,"length_road":0,"maize_area":0,"mongo_id":"6ab66bf9c7dc526b7165a4ef","population":0,"pv_en":"Changwat Udon Thani","pv_idn":41,"pv_tn":"จ.อุดรธานี","re_royin":"Northeast","re_royin_2":"Northeast","rice_area":0,"school":0,"sugarcane_area":0,"tb_en":"KUMPHAWAPI","tb_idn":410415,"tb_tn":"ต.กุมภวาปี"},"type":"Feature"},{"geometry":{"coordinates":[[[[102.9899454580073,17.141135379312395],[102.98994545806048,17.14063876571656],[102.9892717215976,17.140638765716567],[102.98927172159759,17.140863344537607],[102.98915429990268,17.14086334463437],[102.98957844181133,17.141243444578986],[102.9899454580073,17.141135379312395]]]],"type":"MultiPolygon"},"id":"6ab66fa78e5c8d8f9686ed08","properties":{"_area":4155.4703528017335,"_createdAt":"2026-09-25T12:57:11.827Z","_createdBy":"66b07c8034c2963abcdb9bb8","_id":"6ab66fa78e5c8d8f9686ed08","_updatedAt":"2026-09-25T12:57:11.827Z","_updatedBy":"66b07c8034c2963abcdb9bb8","ap_en":"AMPHOE KUMPHAWAPI","ap_idn":4104,"ap_tn":"อ.กุมภวาปี","building":0,"cassava_area":0,"f_area":4155.4703528017335,"file_name":"cg2_20260919_1806, S1C_20260921_0558, S1C_20260923_1812, S1D_20260920_0607, S1D_20260922_0551, S1D_20260922_1819, rd2_20260924_1815","h3_address":"8941692cb4fffff","h3_area":121618.53801670346,"hospital":0,"length_road":0,"maize_area":0,"mongo_id":"6ab66bf9c7dc526b7165a4d0","population":0,"pv_en":"Changwat Udon Thani","pv_idn":41,"pv_tn":"จ.อุดรธานี","re_royin":"Northeast","re_royin_2":"Northeast","rice_area":0,"school":0,"sugarcane_area":0,"tb_en":"PHAN DON","tb_idn":410402,"tb_tn":"ต.พันดอน"},"type":"Feature"},{"geometry":{"coordinates":[[[[103.02110870055232,17.102117867462912],[103.02109230332734,17.10135509002505],[103.02099853855903,17.101356954036575],[103.02099660028158,17.101266783214026],[103.02024648207004,17.10128169366797],[103.02024841998804,17.101371864573814],[103.01977959549832,17.101381182255658],[103.01978928414358,17.101832037030054],[103.01969551898583,17.101833900488863],[103.01970908326902,17.102465097203407],[103.01980284874121,17.102463233671678],[103.0198036896274,17.102502361445314],[103.02110870055232,17.102117867462912]]]],"type":"MultiPolygon"},"id":"6ab66fa78e5c8d8f9686ed09","properties":{"_area":16125.225466071963,"_createdAt":"2026-09-25T12:57:11.827Z","_createdBy":"66b07c8034c2963abcdb9bb8","_id":"6ab66fa78e5c8d8f9686ed09","_updatedAt":"2026-09-25T12:57:11.827Z","_updatedBy":"66b07c8034c2963abcdb9bb8","ap_en":"AMPHOE KUMPHAWAPI","ap_idn":4104,"ap_tn":"อ.กุมภวาปี","building":0,"cassava_area":0,"f_area":16125.225466071963,"file_name":"cg2_20260919_1806, S1C_20260921_0558, S1C_20260923_1812, S1D_20260920_0607, S1D_20260922_0551, S1D_20260922_1819, rd2_20260924_1815","h3_address":"8941692cc73ffff","h3_area":121635.53855636455,"hospital":0,"length_road":0,"maize_area":0,"mongo_id":"6ab13d670dc1d69bfdfd0810","population":0,"pv_en":"Changwat Udon Thani","pv_idn":41,"pv_tn":"จ.อุดรธานี","re_royin":"Northeast","re_royin_2":"Northeast","rice_area":0,"school":0,"sugarcane_area":0,"tb_en":"KUMPHAWAPI","tb_idn":410415,"tb_tn":"ต.กุมภวาปี"},"type":"Feature"},{"geometry":{"coordinates":[[[[103.02047471233494,17.103171554686394],[103.02047083585936,17.10299121295597],[103.0205646015067,17.10298934901612],[103.02056266324195,17.102899178159735],[103.02075019441129,17.102895450171335],[103.02074244111027,17.10253476681908],[103.02083620649755,17.102532902801784],[103.02083426815686,17.10244273197151],[103.02092803348765,17.102440867921445],[103.02092609511394,17.102350697100587],[103.02101986038787,17.102348833017746],[103.0210159835857,17.102168491393897],[103.02110974875812,17.10216662728858],[103.02110870055232,17.102117867462912],[103.0198036896274,17.102502361445314],[103.01980672444665,17.10264357556012],[103.01990048999666,17.102641711964445],[103.01990630377774,17.102912224758203],[103.02000006945066,17.102910361088096],[103.02000394545347,17.10309070292477],[103.02009771120454,17.103088839190534],[103.02009964926847,17.103179010096916],[103.02047471233494,17.103171554686394]]]],"type":"MultiPolygon"},"id":"6ab66fa78e5c8d8f9686ed0a","properties":{"_area":8074.774532543923,"_createdAt":"2026-09-25T12:57:11.827Z","_createdBy":"66b07c8034c2963abcdb9bb8","_id":"6ab66fa78e5c8d8f9686ed0a","_updatedAt":"2026-09-25T12:57:11.827Z","_updatedBy":"66b07c8034c2963abcdb9bb8","ap_en":"AMPHOE KUMPHAWAPI","ap_idn":4104,"ap_tn":"อ.กุมภวาปี","building":0,"cassava_area":0,"f_area":8074.774532543923,"file_name":"cg2_20260919_1806, S1C_20260921_0558, S1C_20260923_1812, S1D_20260920_0607, S1D_20260922_0551, S1D_20260922_1819, rd2_20260924_1815","h3_address":"8941692cc7bffff","h3_area":121632.55458780011,"hospital":0,"length_road":0,"maize_area":0,"mongo_id":"6ab13d670dc1d69bfdfd0811","population":0,"pv_en":"Changwat Udon Thani","pv_idn":41,"pv_tn":"จ.อุดรธานี","re_royin":"Northeast","re_royin_2":"Northeast","rice_area":0,"school":0,"sugarcane_area":0,"tb_en":"KUMPHAWAPI","tb_idn":410415,"tb_tn":"ต.กุมภวาปี"},"type":"Feature"},{"geometry":{"coordinates":[[[[103.04864748420395,17.15793133496562],[103.04856053034933,17.157931334935864],[103.04856053034932,17.15770675611483],[103.04811137270741,17.157706756114827],[103.04811137270741,17.158155913756833],[103.04788679388645,17.158155913756836],[103.04788679388646,17.158829650219985],[103.04842023363265,17.158829650703993],[103.04864748420395,17.15793133496562]]]],"type":"MultiPolygon"},"id":"6ab66fa78e5c8d8f9686ed0b","properties":{"_area":7466.5227531833025,"_createdAt":"2026-09-25T12:57:11.827Z","_createdBy":"66b07c8034c2963abcdb9bb8","_id":"6ab66fa78e5c8d8f9686ed0b","_updatedAt":"2026-09-25T12:57:11.827Z","_updatedBy":"66b07c8034c2963abcdb9bb8","ap_en":"AMPHOE KUMPHAWAPI","ap_idn":4104,"ap_tn":"อ.กุมภวาปี","building":0,"cassava_area":0,"f_area":7466.5227531833025,"file_name":"cg2_20260919_1806, S1C_20260921_0558, S1C_20260923_1812, S1D_20260920_0607, S1D_20260922_0551, S1D_20260922_1819, rd2_20260924_1815","h3_address":"8941692d88bffff","h3_area":121578.21870549418,"hospital":0,"length_road":0,"maize_area":0,"mongo_id":"6ab66bf9c7dc526b7165a4da","population":0,"pv_en":"Changwat Udon Thani","pv_idn":41,"pv_tn":"จ.อุดรธานี","re_royin":"Northeast","re_royin_2":"Northeast","rice_area":0,"school":0,"sugarcane_area":0,"tb_en":"CHAE LAE","tb_idn":410404,"tb_tn":"ต.แชแล"},"type":"Feature"}],"metadata":{"source":"GISTDA Disaster Platform","source_url":"https://disaster.gistda.or.th/flood","window_days":7,"retrieved_at":"2026-09-25T14:59:35.114185+00:00"}}